SL-3 R/B                
1 13403U 82079B   26079.82219626  .00005906  00000+0  23389-3 0  9994
2 13403  81.1490 179.9332 0025395 127.8809 232.4727 15.24946386379395
SL-14 R/B               
1 13553U 82092B   26079.40302844  .00000372  00000+0  39070-4 0  9991
2 13553  82.5673 131.3784 0018751 265.2216 105.2121 14.86675625330528
SL-3 R/B                
1 13819U 83010B   26079.69533322  .00014963  00000+0  29698-3 0  9990
2 13819  81.1061 348.7530 0016920  14.5109 345.6618 15.46712421359642
SL-3 R/B                
1 14208U 83075B   26079.80865671  .00010009  00000+0  26236-3 0  9994
2 14208  97.6139  84.8087 0021309 184.5552 175.5502 15.38660304331864
COSMOS 1536             
1 14699U 84013A   26079.75133242  .00006082  00000+0  24961-3 0  9996
2 14699  82.5412  96.8503 0012669 239.3193 120.6797 15.23962261274303
SL-14 R/B               
1 14820U 84027B   26079.87110883  .00000446  00000+0  48183-4 0  9997
2 14820  82.5400 234.5240 0016634 298.8197  61.1349 14.85987548249299
SL-8 R/B                
1 15483U 85006B   26079.43685402  .00000298  00000+0  10732-3 0  9990
2 15483  74.0438 241.3706 0018012 156.2040 234.3135 14.37790912155579
SL-12 R/B(2)            
1 15772U 85042D   26079.68981181  .00000029  00000+0  34448-4 0  9994
2 15772  71.1070  64.4862 0032931 109.9289  62.3062 14.21985283115959
SL-14 R/B               
1 15945U 85069B   26079.31396521  .00000446  00000+0  47606-4 0  9996
2 15945  82.5300  14.9449 0019425 152.8819 207.3417 14.86444467174419
SL-16 R/B               
1 16182U 85097B   26079.88289800  .00000278  00000+0  16312-3 0  9996
2 16182  71.0013 116.9893 0009591 246.3199 286.5971 14.16600808 88814
SL-14 R/B               
1 16496U 86006B   26079.75938585  .00000751  00000+0  77232-4 0  9997
2 16496  82.5239 249.3157 0075285 235.4015 124.0086 14.86830869150858
COSMOS 1743             
1 16719U 86034A   26079.68227675  .00043907  00000+0  55474-3 0  9992
2 16719  82.5297  62.2845 0002655 200.7240 159.3909 15.59354292181965
