CCSDS_OMM_VERS = 2.0
CREATION_DATE  = 
ORIGINATOR     = 

OBJECT_NAME    = SL-3 R/B
OBJECT_ID      = 1982-079B
CENTER_NAME    = EARTH
REF_FRAME      = TEME
TIME_SYSTEM    = UTC
MEAN_ELEMENT_THEORY = SGP/SGP4

EPOCH          = 2026-03-20T19:43:57.756864
MEAN_MOTION    = 15.24946386
ECCENTRICITY   = .0025395
INCLINATION    = 81.1490
RA_OF_ASC_NODE = 179.9332
ARG_OF_PERICENTER = 127.8809
MEAN_ANOMALY   = 232.4727

EPHEMERIS_TYPE = 0
CLASSIFICATION_TYPE = U
NORAD_CAT_ID   = 13403
ELEMENT_SET_NO = 999
REV_AT_EPOCH   = 37939
BSTAR          = .23389E-3
MEAN_MOTION_DOT = .5906E-4
MEAN_MOTION_DDOT = 0

CCSDS_OMM_VERS = 2.0
CREATION_DATE  = 
ORIGINATOR     = 

OBJECT_NAME    = SL-14 R/B
OBJECT_ID      = 1982-092B
CENTER_NAME    = EARTH
REF_FRAME      = TEME
TIME_SYSTEM    = UTC
MEAN_ELEMENT_THEORY = SGP/SGP4

EPOCH          = 2026-03-20T09:40:21.657216
MEAN_MOTION    = 14.86675625
ECCENTRICITY   = .00187518
INCLINATION    = 82.5673
RA_OF_ASC_NODE = 131.3784
ARG_OF_PERICENTER = 265.2216
MEAN_ANOMALY   = 105.2121

EPHEMERIS_TYPE = 0
CLASSIFICATION_TYPE = U
NORAD_CAT_ID   = 13553
ELEMENT_SET_NO = 999
REV_AT_EPOCH   = 33052
BSTAR          = .39069528E-4
MEAN_MOTION_DOT = .372E-5
MEAN_MOTION_DDOT = 0

CCSDS_OMM_VERS = 2.0
CREATION_DATE  = 
ORIGINATOR     = 

OBJECT_NAME    = SL-3 R/B
OBJECT_ID      = 1983-010B
CENTER_NAME    = EARTH
REF_FRAME      = TEME
TIME_SYSTEM    = UTC
MEAN_ELEMENT_THEORY = SGP/SGP4

EPOCH          = 2026-03-20T16:41:16.790208
MEAN_MOTION    = 15.46712421
ECCENTRICITY   = .001692
INCLINATION    = 81.1061
RA_OF_ASC_NODE = 348.7530
ARG_OF_PERICENTER = 14.5109
MEAN_ANOMALY   = 345.6618

EPHEMERIS_TYPE = 0
CLASSIFICATION_TYPE = U
NORAD_CAT_ID   = 13819
ELEMENT_SET_NO = 999
REV_AT_EPOCH   = 35964
BSTAR          = .29698E-3
MEAN_MOTION_DOT = .14963E-3
MEAN_MOTION_DDOT = 0

CCSDS_OMM_VERS = 2.0
CREATION_DATE  = 
ORIGINATOR     = 

OBJECT_NAME    = SL-3 R/B
OBJECT_ID      = 1983-075B
CENTER_NAME    = EARTH
REF_FRAME      = TEME
TIME_SYSTEM    = UTC
MEAN_ELEMENT_THEORY = SGP/SGP4

EPOCH          = 2026-03-20T19:24:27.939744
MEAN_MOTION    = 15.38660304
ECCENTRICITY   = .0021309
INCLINATION    = 97.6139
RA_OF_ASC_NODE = 84.8087
ARG_OF_PERICENTER = 184.5552
MEAN_ANOMALY   = 175.5502

EPHEMERIS_TYPE = 0
CLASSIFICATION_TYPE = U
NORAD_CAT_ID   = 14208
ELEMENT_SET_NO = 999
REV_AT_EPOCH   = 33186
BSTAR          = .26236E-3
MEAN_MOTION_DOT = .10009E-3
MEAN_MOTION_DDOT = 0

CCSDS_OMM_VERS = 2.0
CREATION_DATE  = 
ORIGINATOR     = 

OBJECT_NAME    = COSMOS 1536
OBJECT_ID      = 1984-013A
CENTER_NAME    = EARTH
REF_FRAME      = TEME
TIME_SYSTEM    = UTC
MEAN_ELEMENT_THEORY = SGP/SGP4

EPOCH          = 2026-03-20T18:01:55.121088
MEAN_MOTION    = 15.23962261
ECCENTRICITY   = .0012669
INCLINATION    = 82.5412
RA_OF_ASC_NODE = 96.8503
ARG_OF_PERICENTER = 239.3193
MEAN_ANOMALY   = 120.6797

EPHEMERIS_TYPE = 0
CLASSIFICATION_TYPE = U
NORAD_CAT_ID   = 14699
ELEMENT_SET_NO = 999
REV_AT_EPOCH   = 27430
BSTAR          = .24961E-3
MEAN_MOTION_DOT = .6082E-4
MEAN_MOTION_DDOT = 0

CCSDS_OMM_VERS = 2.0
CREATION_DATE  = 
ORIGINATOR     = 

OBJECT_NAME    = SL-14 R/B
OBJECT_ID      = 1984-027B
CENTER_NAME    = EARTH
REF_FRAME      = TEME
TIME_SYSTEM    = UTC
MEAN_ELEMENT_THEORY = SGP/SGP4

EPOCH          = 2026-03-20T20:54:23.802912
MEAN_MOTION    = 14.85987548
ECCENTRICITY   = .0016634
INCLINATION    = 82.5400
RA_OF_ASC_NODE = 234.5240
ARG_OF_PERICENTER = 298.8197
MEAN_ANOMALY   = 61.1349

EPHEMERIS_TYPE = 0
CLASSIFICATION_TYPE = U
NORAD_CAT_ID   = 14820
ELEMENT_SET_NO = 999
REV_AT_EPOCH   = 24929
BSTAR          = .48183E-4
MEAN_MOTION_DOT = .446E-5
MEAN_MOTION_DDOT = 0

CCSDS_OMM_VERS = 2.0
CREATION_DATE  = 
ORIGINATOR     = 

OBJECT_NAME    = SL-8 R/B
OBJECT_ID      = 1985-006B
CENTER_NAME    = EARTH
REF_FRAME      = TEME
TIME_SYSTEM    = UTC
MEAN_ELEMENT_THEORY = SGP/SGP4

EPOCH          = 2026-03-20T10:29:04.187328
MEAN_MOTION    = 14.37790912
ECCENTRICITY   = .00180121
INCLINATION    = 74.0438
RA_OF_ASC_NODE = 241.3706
ARG_OF_PERICENTER = 156.2040
MEAN_ANOMALY   = 234.3135

EPHEMERIS_TYPE = 0
CLASSIFICATION_TYPE = U
NORAD_CAT_ID   = 15483
ELEMENT_SET_NO = 999
REV_AT_EPOCH   = 15557
BSTAR          = .10732035E-3
MEAN_MOTION_DOT = .298E-5
MEAN_MOTION_DDOT = 0

CCSDS_OMM_VERS = 2.0
CREATION_DATE  = 
ORIGINATOR     = 

OBJECT_NAME    = SL-12 R/B(2)
OBJECT_ID      = 1985-042D
CENTER_NAME    = EARTH
REF_FRAME      = TEME
TIME_SYSTEM    = UTC
MEAN_ELEMENT_THEORY = SGP/SGP4

EPOCH          = 2026-03-20T16:33:19.740384
MEAN_MOTION    = 14.21985283
ECCENTRICITY   = .0032931
INCLINATION    = 71.1070
RA_OF_ASC_NODE = 64.4862
ARG_OF_PERICENTER = 109.9289
MEAN_ANOMALY   = 62.3062

EPHEMERIS_TYPE = 0
CLASSIFICATION_TYPE = U
NORAD_CAT_ID   = 15772
ELEMENT_SET_NO = 999
REV_AT_EPOCH   = 11595
BSTAR          = .34448E-4
MEAN_MOTION_DOT = .29E-6
MEAN_MOTION_DDOT = 0

CCSDS_OMM_VERS = 2.0
CREATION_DATE  = 
ORIGINATOR     = 

OBJECT_NAME    = SL-14 R/B
OBJECT_ID      = 1985-069B
CENTER_NAME    = EARTH
REF_FRAME      = TEME
TIME_SYSTEM    = UTC
MEAN_ELEMENT_THEORY = SGP/SGP4

EPOCH          = 2026-03-20T07:32:06.594144
MEAN_MOTION    = 14.86444467
ECCENTRICITY   = .0019425
INCLINATION    = 82.5300
RA_OF_ASC_NODE = 14.9449
ARG_OF_PERICENTER = 152.8819
MEAN_ANOMALY   = 207.3417

EPHEMERIS_TYPE = 0
CLASSIFICATION_TYPE = U
NORAD_CAT_ID   = 15945
ELEMENT_SET_NO = 999
REV_AT_EPOCH   = 17441
BSTAR          = .47606E-4
MEAN_MOTION_DOT = .446E-5
MEAN_MOTION_DDOT = 0

CCSDS_OMM_VERS = 2.0
CREATION_DATE  = 
ORIGINATOR     = 

OBJECT_NAME    = SL-16 R/B
OBJECT_ID      = 1985-097B
CENTER_NAME    = EARTH
REF_FRAME      = TEME
TIME_SYSTEM    = UTC
MEAN_ELEMENT_THEORY = SGP/SGP4

EPOCH          = 2026-03-20T21:11:22.387200
MEAN_MOTION    = 14.16600808
ECCENTRICITY   = .0009591
INCLINATION    = 71.0013
RA_OF_ASC_NODE = 116.9893
ARG_OF_PERICENTER = 246.3199
MEAN_ANOMALY   = 286.5971

EPHEMERIS_TYPE = 0
CLASSIFICATION_TYPE = U
NORAD_CAT_ID   = 16182
ELEMENT_SET_NO = 999
REV_AT_EPOCH   = 8881
BSTAR          = .16312E-3
MEAN_MOTION_DOT = .278E-5
MEAN_MOTION_DDOT = 0

CCSDS_OMM_VERS = 2.0
CREATION_DATE  = 
ORIGINATOR     = 

OBJECT_NAME    = SL-14 R/B
OBJECT_ID      = 1986-006B
CENTER_NAME    = EARTH
REF_FRAME      = TEME
TIME_SYSTEM    = UTC
MEAN_ELEMENT_THEORY = SGP/SGP4

EPOCH          = 2026-03-20T18:13:30.937440
MEAN_MOTION    = 14.86830869
ECCENTRICITY   = .0075285
INCLINATION    = 82.5239
RA_OF_ASC_NODE = 249.3157
ARG_OF_PERICENTER = 235.4015
MEAN_ANOMALY   = 124.0086

EPHEMERIS_TYPE = 0
CLASSIFICATION_TYPE = U
NORAD_CAT_ID   = 16496
ELEMENT_SET_NO = 999
REV_AT_EPOCH   = 15085
BSTAR          = .77232E-4
MEAN_MOTION_DOT = .751E-5
MEAN_MOTION_DDOT = 0

CCSDS_OMM_VERS = 2.0
CREATION_DATE  = 
ORIGINATOR     = 

OBJECT_NAME    = COSMOS 1743
OBJECT_ID      = 1986-034A
CENTER_NAME    = EARTH
REF_FRAME      = TEME
TIME_SYSTEM    = UTC
MEAN_ELEMENT_THEORY = SGP/SGP4

EPOCH          = 2026-03-20T16:22:28.711200
MEAN_MOTION    = 15.59354292
ECCENTRICITY   = .0002655
INCLINATION    = 82.5297
RA_OF_ASC_NODE = 62.2845
ARG_OF_PERICENTER = 200.7240
MEAN_ANOMALY   = 159.3909

EPHEMERIS_TYPE = 0
CLASSIFICATION_TYPE = U
NORAD_CAT_ID   = 16719
ELEMENT_SET_NO = 999
REV_AT_EPOCH   = 18196
BSTAR          = .55474E-3
MEAN_MOTION_DOT = .43907E-3
MEAN_MOTION_DDOT = 0

